{
  "norad_id": 67889,
  "name": "STARLINK-36372",
  "history": [
    {
      "epoch": "2026-03-28T19:05:39.749280",
      "apogee_km": 345.11050521373,
      "perigee_km": 342.72108432729965,
      "latitude_deg": -67.33045432576533,
      "longitude_deg": -34.7225008001551,
      "semi_major_axis_km": 6722.052794770514,
      "eccentricity": 0.00017773,
      "inclination_deg": 97.2866,
      "raan_deg": 21.1715,
      "arg_perigee_deg": 76.2616,
      "mean_anomaly_deg": 283.8847,
      "mean_motion_rev_day": 15.75251433
    }
  ]
}