{"fetched_at":"2026-03-29T16:36:15Z","count":15609,"tles":[{"name":"STARLINK-36372","line1":"1 67889U 26035L   26087.79559895  .00212387  00000+0  13860-2 0  9996","line2":"2 67889  97.2866  21.1715 0001777  76.2616 283.8847 15.75251433  6850","category":"Starlink"}]}